ONEWEB-0289             
1 49079U 21075E   24081.74278305 -.00000042  00000+0 -14144-3 0  9999
2 49079  87.9255 168.5203 0001820  99.1336 261.0001 13.17646596126551
ONEWEB-0290             
1 49080U 21075F   24081.64945266 -.00000011  00000+0 -60605-4 0  9997
2 49080  87.9253 168.5010 0001873 120.7968 239.3348 13.17648674125951
ONEWEB-0291             
1 49081U 21075G   24081.78550007  .00000098  00000+0  21949-3 0  9998
2 49081  87.9249 168.5002 0002039 113.6093 246.5253 13.17647236125962
ONEWEB-0293             
1 49082U 21075H   24081.73489589  .00000009  00000+0 -10250-4 0  9997
2 49082  87.9252 168.5191 0001891 114.5751 245.5578 13.17651005125982
ONEWEB-0294             
1 49083U 21075J   24081.76054297 -.00000354  00000+0 -10192-2 0  9992
2 49083  87.9008 153.3763 0002005 124.7742 235.3575 13.12443431127354
ONEWEB-0295             
1 49084U 21075K   24081.73646509  .00000003  00000+0 -25706-4 0  9992
2 49084  87.9253 168.4950 0002325 114.1219 246.0156 13.17647596125949
ONEWEB-0296             
1 49085U 21075L   24081.74307651  .00000085  00000+0  20068-3 0  9990
2 49085  87.9009 153.3799 0002446 120.2146 239.9225 13.12441429127351
ONEWEB-0297             
1 49086U 21075M   24081.69860523 -.00000202  00000+0 -59598-3 0  9990
2 49086  87.9018 153.3885 0002057 100.7787 259.3573 13.12444015127952
